OBJECT_NAME,OBJECT_ID,EPOCH,MEAN_MOTION,ECCENTRICITY,INCLINATION,RA_OF_ASC_NODE,ARG_OF_PERICENTER,MEAN_ANOMALY,EPHEMERIS_TYPE,CLASSIFICATION_TYPE,NORAD_CAT_ID,ELEMENT_SET_NO,REV_AT_EPOCH,BSTAR,MEAN_MOTION_DOT,MEAN_MOTION_DDOT
HYLAS 2,2012-043B,2026-06-08T06:11:34.071072,1.00271335,.00027422,2.4032,81.1760,19.0811,176.7227,0,U,38741,999,5068,0,-.242E-5,0
INTELSAT 21 (IS-21),2012-045A,2026-06-08T06:15:48.664224,1.00272068,.00019854,0.0458,87.6548,357.4167,207.5531,0,U,38749,999,5043,0,-.269E-5,0
ASTRA 2F,2012-051A,2026-06-08T06:40:23.807712,1.00273330,.00010375,0.0449,256.1171,276.9839,211.8582,0,U,38778,999,4104,0,.166E-5,0
GSAT-10,2012-051B,2026-06-07T03:33:22.199040,1.00271795,.0008003,0.0171,262.4199,186.5141,302.9972,0,U,38779,999,4999,0,-.151E-5,0
INTELSAT 23 (IS-23),2012-057A,2026-06-08T06:17:11.032800,1.00275334,.00005324,0.0124,337.9089,117.6241,202.4244,0,U,38867,999,4986,0,-.269E-5,0
BEIDOU-2 G6,2012-059A,2026-06-08T00:55:51.752352,1.00274821,.00103582,4.3975,73.6191,324.5073,316.2719,0,U,38953,999,4981,0,-.161E-5,0
LUCH-5B,2012-061A,2026-06-07T23:37:00.003648,1.00273999,.00018301,10.4610,49.9704,137.7633,46.5991,0,U,38977,999,4951,0,-.125E-5,0
YAMAL 300K,2012-061B,2026-06-08T05:41:50.512416,1.00271399,.00012137,0.0113,267.4969,308.7621,308.7899,0,U,38978,999,4954,0,.87E-6,0
STAR ONE C3,2012-062A,2026-06-08T06:10:56.631360,1.00269549,.00025158,0.0178,2.2025,91.4492,180.7330,0,U,38991,999,4967,0,-.233E-5,0
EUTELSAT 21B,2012-062B,2026-06-08T06:38:23.999424,1.00271007,.00030259,0.0655,353.1667,80.3785,304.2927,0,U,38992,999,4973,0,.145E-5,0
ECHOSTAR 16,2012-065A,2026-06-08T06:14:41.272224,1.00271268,.00017716,0.0178,342.0978,98.4386,208.3000,0,U,39008,999,4955,0,-.266E-5,0
ZHONGXING-12,2012-067A,2026-06-08T06:57:07.203744,1.00270990,.00033111,0.0494,96.6187,337.8677,13.9818,0,U,39017,999,4942,0,-.191E-5,0
EUTELSAT 70B,2012-069A,2026-06-08T03:27:01.962144,1.00271651,.00039778,0.0612,355.7414,74.1994,308.8395,0,U,39020,999,4941,0,-.28E-6,0
YAMAL 402,2012-070A,2026-06-08T05:05:15.059904,1.00271828,.00038562,1.2411,84.2753,349.3476,314.1925,0,U,39022,999,4930,0,.102E-5,0
SKYNET 5D,2012-075A,2026-06-08T05:04:37.620192,1.00272826,.00038285,0.0664,1.5956,84.1250,299.8230,0,U,39034,999,4906,0,.114E-5,0
MEXSAT 3,2012-075B,2026-06-08T05:59:35.623968,1.00269021,.00013472,0.0283,84.9351,345.6331,161.1791,0,U,39035,999,696,0,-.1E-6,0
TDRS 11,2013-004A,2026-06-08T06:36:22.469184,1.00266332,.00056577,3.5082,31.1190,16.0714,134.2710,0,U,39070,999,4660,0,.94E-6,0
AMAZONAS 3,2013-006A,2026-06-08T06:14:56.247936,1.00269961,.0002175,0.0086,233.5906,237.0712,178.7302,0,U,39078,999,4482,0,-.267E-5,0
AZERSPACE 1,2013-006B,2026-06-07T18:46:45.077088,1.00275469,.00014139,0.0178,2.5468,95.9707,125.3428,0,U,39079,999,4871,0,.148E-5,0
SBIRS GEO-2 (USA 241),2013-011A,2026-06-08T04:35:25.418688,1.00271658,.00021496,4.4711,52.5066,16.6691,206.4556,0,U,39120,999,4844,0,-.272E-5,0
EUTELSAT 117 WEST A,2013-012A,2026-06-08T05:58:58.184256,1.00272046,.00028065,0.0441,64.3680,16.6783,148.5370,0,U,39122,999,4834,0,.3E-7,0
ANIK G1,2013-014A,2026-06-08T06:01:58.865664,1.00271877,.00017002,0.0459,88.1794,342.1041,169.5539,0,U,39127,999,4816,0,-.58E-6,0
ZHONGXING-11,2013-020A,2026-06-08T00:09:33.955200,1.00273970,.00025285,0.0311,40.3212,30.7044,285.6826,0,U,39157,999,4780,0,-.276E-5,0
EUTELSAT 7B,2013-022A,2026-06-08T06:34:16.893696,1.00271249,.00050107,0.0687,10.5959,25.3765,326.2597,0,U,39163,999,4785,0,.63E-6,0
WGS F5 (USA 243),2013-024A,2026-06-08T06:17:18.521088,1.00271422,.00001294,0.0194,312.8995,109.5542,236.0305,0,U,39168,999,4708,0,-.269E-5,0
SES-6,2013-026A,2026-06-08T06:20:40.697952,1.00270240,.00026837,0.0218,321.2808,133.3167,216.7330,0,U,39172,999,4763,0,-.246E-5,0
IRNSS-1A,2013-034A,2026-05-22T20:37:38.469792,1.00280263,.00166187,35.6649,64.2334,185.3754,355.4646,0,U,39199,999,4711,0,.59E-6,0
MUOS-2,2013-036A,2026-06-07T21:05:27.793824,1.00271596,.00506379,4.9776,45.5218,177.9783,161.0759,0,U,39206,999,4709,0,.1E-7,0
ALPHASAT,2013-038A,2026-06-07T13:32:42.112320,1.00270633,.00019595,2.9979,1.4237,77.3938,45.1864,0,U,39215,999,4392,0,.147E-5,0
INSAT-3D,2013-038B,2026-06-08T07:09:11.901024,1.00274029,.00008129,1.9021,82.6567,318.6495,92.1907,0,U,39216,999,4699,0,-.323E-5,0
WGS F6 (USA 244),2013-041A,2026-06-08T02:28:25.026816,1.00271137,.00000406,0.0176,354.3612,97.7577,66.3174,0,U,39222,999,4597,0,.104E-5,0
ES'HAIL 1,2013-044A,2026-06-08T06:39:16.415712,1.00270899,.00023543,0.0485,2.8725,70.5740,308.5131,0,U,39233,999,4653,0,.159E-5,0
