HYLAS 2                 
1 38741U 12043B   26159.25803323 -.00000242  00000+0  00000+0 0  9999
2 38741   2.4032  81.1760 0002742  19.0811 176.7227  1.00271335 50687
INTELSAT 21 (IS-21)     
1 38749U 12045A   26159.26097991 -.00000269  00000+0  00000+0 0  9995
2 38749   0.0458  87.6548 0001985 357.4167 207.5531  1.00272068 50435
ASTRA 2F                
1 38778U 12051A   26159.27805333  .00000166  00000+0  00000+0 0  9997
2 38778   0.0449 256.1171 0001037 276.9839 211.8582  1.00273330 41045
GSAT-10                 
1 38779U 12051B   26158.14817360 -.00000151  00000+0  00000+0 0  9991
2 38779   0.0171 262.4199 0008003 186.5141 302.9972  1.00271795 49990
INTELSAT 23 (IS-23)     
1 38867U 12057A   26159.26193325 -.00000269  00000+0  00000+0 0  9997
2 38867   0.0124 337.9089 0000532 117.6241 202.4244  1.00275334 49862
BEIDOU-2 G6             
1 38953U 12059A   26159.03879343 -.00000161  00000+0  00000+0 0  9992
2 38953   4.3975  73.6191 0010358 324.5073 316.2719  1.00274821 49812
LUCH-5B                 
1 38977U 12061A   26158.98402782 -.00000125  00000+0  00000+0 0  9993
2 38977  10.4610  49.9704 0001830 137.7633  46.5991  1.00273999 49516
YAMAL 300K              
1 38978U 12061B   26159.23739019  .00000087  00000+0  00000+0 0  9995
2 38978   0.0113 267.4969 0001213 308.7621 308.7899  1.00271399 49547
STAR ONE C3             
1 38991U 12062A   26159.25759990 -.00000233  00000+0  00000+0 0  9997
2 38991   0.0178   2.2025 0002515  91.4492 180.7330  1.00269549 49675
EUTELSAT 21B            
1 38992U 12062B   26159.27666666  .00000145  00000+0  00000+0 0  9998
2 38992   0.0655 353.1667 0003025  80.3785 304.2927  1.00271007 49739
ECHOSTAR 16             
1 39008U 12065A   26159.26019991 -.00000266  00000+0  00000+0 0  9997
2 39008   0.0178 342.0978 0001771  98.4386 208.3000  1.00271268 49558
ZHONGXING-12            
1 39017U 12067A   26159.28966671 -.00000191  00000+0  00000+0 0  9994
2 39017   0.0494  96.6187 0003311 337.8677  13.9818  1.00270990 49422
EUTELSAT 70B            
1 39020U 12069A   26159.14377271 -.00000028  00000+0  00000+0 0  9996
2 39020   0.0612 355.7414 0003977  74.1994 308.8395  1.00271651 49411
YAMAL 402               
1 39022U 12070A   26159.21197986  .00000102  00000+0  00000+0 0  9993
2 39022   1.2411  84.2753 0003856 349.3476 314.1925  1.00271828 49304
SKYNET 5D               
1 39034U 12075A   26159.21154653  .00000114  00000+0  00000+0 0  9998
2 39034   0.0664   1.5956 0003828  84.1250 299.8230  1.00272826 49064
MEXSAT 3                
1 39035U 12075B   26159.24971787 -.00000010  00000+0  00000+0 0  9993
2 39035   0.0283  84.9351 0001347 345.6331 161.1791  1.00269021  6963
TDRS 11                 
1 39070U 13004A   26159.27526006  .00000094  00000+0  00000+0 0  9999
2 39070   3.5082  31.1190 0005657  16.0714 134.2710  1.00266332 46603
AMAZONAS 3              
1 39078U 13006A   26159.26037324 -.00000267  00000+0  00000+0 0  9991
2 39078   0.0086 233.5906 0002175 237.0712 178.7302  1.00269961 44828
AZERSPACE 1             
1 39079U 13006B   26158.78246617  .00000148  00000+0  00000+0 0  9992
2 39079   0.0178   2.5468 0001413  95.9707 125.3428  1.00275469 48716
SBIRS GEO-2 (USA 241)   
1 39120U 13011A   26159.19126642 -.00000272  00000+0  00000+0 0  9995
2 39120   4.4711  52.5066 0002149  16.6691 206.4556  1.00271658 48441
EUTELSAT 117 WEST A     
1 39122U 13012A   26159.24928454  .00000003  00000+0  00000+0 0  9996
2 39122   0.0441  64.3680 0002806  16.6783 148.5370  1.00272046 48341
ANIK G1                 
1 39127U 13014A   26159.25137576 -.00000058  00000+0  00000+0 0  9992
2 39127   0.0459  88.1794 0001700 342.1041 169.5539  1.00271877 48162
ZHONGXING-11            
1 39157U 13020A   26159.00664300 -.00000276  00000+0  00000+0 0  9997
2 39157   0.0311  40.3212 0002528  30.7044 285.6826  1.00273970 47804
EUTELSAT 7B             
1 39163U 13022A   26159.27380664  .00000063  00000+0  00000+0 0  9996
2 39163   0.0687  10.5959 0005010  25.3765 326.2597  1.00271249 47852
WGS F5 (USA 243)        
1 39168U 13024A   26159.26201992 -.00000269  00000+0  00000+0 0  9997
2 39168   0.0194 312.8995 0000129 109.5542 236.0305  1.00271422 47085
SES-6                   
1 39172U 13026A   26159.26435993 -.00000246  00000+0  00000+0 0  9999
2 39172   0.0218 321.2808 0002683 133.3167 216.7330  1.00270240 47630
IRNSS-1A                
1 39199U 13034A   26142.85947303  .00000059  00000+0  00000+0 0  9998
2 39199  35.6649  64.2334 0016618 185.3754 355.4646  1.00280263 47111
MUOS-2                  
1 39206U 13036A   26158.87879391  .00000001  00000+0  00000+0 0  9996
2 39206   4.9776  45.5218 0050637 177.9783 161.0759  1.00271596 47093
ALPHASAT                
1 39215U 13038A   26158.56437630  .00000147  00000+0  00000+0 0  9991
2 39215   2.9979   1.4237 0001959  77.3938  45.1864  1.00270633 43924
INSAT-3D                
1 39216U 13038B   26159.29805441 -.00000323  00000+0  00000+0 0  9999
2 39216   1.9021  82.6567 0000812 318.6495  92.1907  1.00274029 46998
WGS F6 (USA 244)        
1 39222U 13041A   26159.10306744  .00000104  00000+0  00000+0 0  9998
2 39222   0.0176 354.3612 0000040  97.7577  66.3174  1.00271137 45978
ES'HAIL 1               
1 39233U 13044A   26159.27727333  .00000159  00000+0  00000+0 0  9992
2 39233   0.0485   2.8725 0002354  70.5740 308.5131  1.00270899 46535
